QZS-1R                  
1 49336U 21096A   24131.78000660 -.00000258  00000+0  00000+0 0  9995
2 49336  35.8705  91.0919 0753781 270.8110 283.1646  1.00272137  9310
